<?xml version="1.0" encoding="UTF-8"?>
<TrainingCenterDatabase xmlns="http://www.garmin.com/xmlschemas/TrainingCenterDatabase/v2">
  <Activities>
    <Activity Sport="Biking">
      <Id>2026-09-18T07:15:00Z</Id>
      <Lap StartTime="2026-09-18T07:15:00Z">
        <TotalTimeSeconds>1800</TotalTimeSeconds>
        <DistanceMeters>15420</DistanceMeters>
        <Calories>450</Calories>
        <Intensity>Active</Intensity>
        <TriggerMethod>Manual</TriggerMethod>
        <Track>
          <Trackpoint>
            <Time>2026-09-18T07:15:01Z</Time>
            <Cadence>88</Cadence>
            <HeartRateBpm><Value>138</Value></HeartRateBpm>
            <Extensions>
              <TPX xmlns="http://www.garmin.com/xmlschemas/ActivityExtension/v2">
                <Watts>165</Watts>
              </TPX>
            </Extensions>
          </Trackpoint>
          <Trackpoint>
            <Time>2026-09-18T07:18:00Z</Time>
            <Cadence>92</Cadence>
            <HeartRateBpm><Value>155</Value></HeartRateBpm>
            <Extensions>
              <TPX xmlns="http://www.garmin.com/xmlschemas/ActivityExtension/v2">
                <Watts>255</Watts>
              </TPX>
            </Extensions>
          </Trackpoint>
          <Trackpoint>
            <Time>2026-09-18T07:25:00Z</Time>
            <Cadence>93</Cadence>
            <HeartRateBpm><Value>164</Value></HeartRateBpm>
            <Extensions>
              <TPX xmlns="http://www.garmin.com/xmlschemas/ActivityExtension/v2">
                <Watts>270</Watts>
              </TPX>
            </Extensions>
          </Trackpoint>
          <Trackpoint>
            <Time>2026-09-18T07:35:00Z</Time>
            <Cadence>94</Cadence>
            <HeartRateBpm><Value>168</Value></HeartRateBpm>
            <Extensions>
              <TPX xmlns="http://www.garmin.com/xmlschemas/ActivityExtension/v2">
                <Watts>268</Watts>
              </TPX>
            </Extensions>
          </Trackpoint>
          <Trackpoint>
            <Time>2026-09-18T07:44:59Z</Time>
            <Cadence>86</Cadence>
            <HeartRateBpm><Value>140</Value></HeartRateBpm>
            <Extensions>
              <TPX xmlns="http://www.garmin.com/xmlschemas/ActivityExtension/v2">
                <Watts>145</Watts>
              </TPX>
            </Extensions>
          </Trackpoint>
        </Track>
      </Lap>
    </Activity>
  </Activities>
</TrainingCenterDatabase>
